{"type": "FeatureCollection", "features": [ {"type": "Feature", "properties": {"norad_id": 66990, "name": "TJS-22", "group": "last-30-days", "lat": 1.8478575623073836, "lon": 34.644862929304, "alt_km": 35794.226401836, "timestamp": "2025-12-27T15:27:09.832847+00:00", "meta": {"OBJECT_NAME": "TJS-22", "OBJECT_ID": "2025-290A", "EPOCH": "2025-12-26T08:16:12.456768", "MEAN_MOTION": 1.00271724, "ECCENTRICITY": 0.00033766, "INCLINATION": 1.9542, "RA_OF_ASC_NODE": 285.0436, "ARG_OF_PERICENTER": 343.3803, "MEAN_ANOMALY": 17.1692, "EPHEMERIS_TYPE": 0, "CLASSIFICATION_TYPE": "U", "NORAD_CAT_ID": 66990, "ELEMENT_SET_NO": 999, "REV_AT_EPOCH": 29, "BSTAR": 0, "MEAN_MOTION_DOT": 1.6e-07, "MEAN_MOTION_DDOT": 0}, "tle": {"line1": "1 66990U 25290A   25360.34458862  .00000016  00000+0  00000+0 0  9999", "line2": "2 66990   1.9542 285.0436 0003376 343.3803  17.1692  1.00271724   295"}}, "geometry": {"type": "Point", "coordinates": [34.644862929304, 1.8478575623073836]}}, {"type": "Feature", "properties": {"norad_id": 66991, "name": "CZ-3B R/B", "group": "last-30-days", "lat": 26.870833147520653, "lon": 46.461511547458485, "alt_km": 3827.2423381554554, "timestamp": "2025-12-27T15:27:09.832860+00:00", "meta": {"OBJECT_NAME": "CZ-3B R/B", "OBJECT_ID": "2025-290B", "EPOCH": "2025-12-15T17:23:33.043200", "MEAN_MOTION": 2.38388611, "ECCENTRICITY": 0.7240884, "INCLINATION": 28.4636, "RA_OF_ASC_NODE": 300.4666, "ARG_OF_PERICENTER": 182.7002, "MEAN_ANOMALY": 168.625, "EPHEMERIS_TYPE": 0, "CLASSIFICATION_TYPE": "U", "NORAD_CAT_ID": 66991, "ELEMENT_SET_NO": 999, "REV_AT_EPOCH": 16, "BSTAR": 0.00075879, "MEAN_MOTION_DOT": 0.00057911, "MEAN_MOTION_DDOT": -2.0514e-07}, "tle": {"line1": "1 66991U 25290B   25349.72468800  .00057911 -20514-6  75879-3 0  9998", "line2": "2 66991  28.4636 300.4666 7240884 182.7002 168.6250  2.38388611   165"}}, "geometry": {"type": "Point", "coordinates": [46.461511547458485, 26.870833147520653]}}, {"type": "Feature", "properties": {"norad_id": 66993, "name": "2025-292A", "group": "last-30-days", "lat": 31.693374611647265, "lon": 69.28849413451344, "alt_km": 561.1306005258748, "timestamp": "2025-12-27T15:27:09.832871+00:00", "meta": {"OBJECT_NAME": "2025-292A", "OBJECT_ID": "2025-292A", "EPOCH": "2025-12-27T05:44:02.121216", "MEAN_MOTION": 15.04606757, "ECCENTRICITY": 0.00147896, "INCLINATION": 97.6491, "RA_OF_ASC_NODE": 73.6476, "ARG_OF_PERICENTER": 220.5754, "MEAN_ANOMALY": 139.4371, "EPHEMERIS_TYPE": 0, "CLASSIFICATION_TYPE": "U", "NORAD_CAT_ID": 66993, "ELEMENT_SET_NO": 999, "REV_AT_EPOCH": 257, "BSTAR": 0.00036114555, "MEAN_MOTION_DOT": 5.021e-05, "MEAN_MOTION_DDOT": 0}, "tle": {"line1": "1 66993U 25292A   25361.23891344  .00005021  00000+0  36115-3 0  9990", "line2": "2 66993  97.6491  73.6476 0014789 220.5754 139.4371 15.04606757  2571"}}, "geometry": {"type": "Point", "coordinates": [69.28849413451344, 31.693374611647265]}}, {"type": "Feature", "properties": {"norad_id": 66994, "name": "2025-292B", "group": "last-30-days", "lat": 34.511800914270886, "lon": 68.74868497121922, "alt_km": 560.4010606638576, "timestamp": "2025-12-27T15:27:09.832880+00:00", "meta": {"OBJECT_NAME": "2025-292B", "OBJECT_ID": "2025-292B", "EPOCH": "2025-12-26T21:44:28.806144", "MEAN_MOTION": 15.04654531, "ECCENTRICITY": 0.0014552, "INCLINATION": 97.6501, "RA_OF_ASC_NODE": 73.3208, "ARG_OF_PERICENTER": 222.0345, "MEAN_ANOMALY": 137.9766, "EPHEMERIS_TYPE": 0, "CLASSIFICATION_TYPE": "U", "NORAD_CAT_ID": 66994, "ELEMENT_SET_NO": 999, "REV_AT_EPOCH": 252, "BSTAR": 0.00041508, "MEAN_MOTION_DOT": 5.788e-05, "MEAN_MOTION_DDOT": 0}, "tle": {"line1": "1 66994U 25292B   25360.90588896  .00005788  00000+0  41508-3 0  9991", "line2": "2 66994  97.6501  73.3208 0014552 222.0345 137.9766 15.04654531  2524"}}, "geometry": {"type": "Point", "coordinates": [68.74868497121922, 34.511800914270886]}}, {"type": "Feature", "properties": {"norad_id": 66995, "name": "2025-292C", "group": "last-30-days", "lat": 35.773941241620946, "lon": 68.49292786092845, "alt_km": 560.204974667723, "timestamp": "2025-12-27T15:27:09.832891+00:00", "meta": {"OBJECT_NAME": "2025-292C", "OBJECT_ID": "2025-292C", "EPOCH": "2025-12-25T05:50:07.257120", "MEAN_MOTION": 15.04668363, "ECCENTRICITY": 0.0014688, "INCLINATION": 97.6495, "RA_OF_ASC_NODE": 71.6733, "ARG_OF_PERICENTER": 227.9665, "MEAN_ANOMALY": 132.0312, "EPHEMERIS_TYPE": 0, "CLASSIFICATION_TYPE": "U", "NORAD_CAT_ID": 66995, "ELEMENT_SET_NO": 999, "REV_AT_EPOCH": 227, "BSTAR": 0.00041226, "MEAN_MOTION_DOT": 5.751e-05, "MEAN_MOTION_DDOT": 0}, "tle": {"line1": "1 66995U 25292C   25359.24313955  .00005751  00000+0  41226-3 0  9996", "line2": "2 66995  97.6495  71.6733 0014688 227.9665 132.0312 15.04668363  2273"}}, "geometry": {"type": "Point", "coordinates": [68.49292786092845, 35.773941241620946]}}, {"type": "Feature", "properties": {"norad_id": 66996, "name": "2025-292D", "group": "last-30-days", "lat": 37.75668471160139, "lon": 68.07563371583987, "alt_km": 559.267572584271, "timestamp": "2025-12-27T15:27:09.832901+00:00", "meta": {"OBJECT_NAME": "2025-292D", "OBJECT_ID": "2025-292D", "EPOCH": "2025-12-25T05:49:36.025248", "MEAN_MOTION": 15.04678565, "ECCENTRICITY": 0.0013797, "INCLINATION": 97.6491, "RA_OF_ASC_NODE": 71.6729, "ARG_OF_PERICENTER": 230.5158, "MEAN_ANOMALY": 129.4848, "EPHEMERIS_TYPE": 0, "CLASSIFICATION_TYPE": "U", "NORAD_CAT_ID": 66996, "ELEMENT_SET_NO": 999, "REV_AT_EPOCH": 227, "BSTAR": 0.00027339, "MEAN_MOTION_DOT": 3.792e-05, "MEAN_MOTION_DDOT": 0}, "tle": {"line1": "1 66996U 25292D   25359.24277807  .00003792  00000+0  27339-3 0  9994", "line2": "2 66996  97.6491  71.6729 0013797 230.5158 129.4848 15.04678565  2271"}}, "geometry": {"type": "Point", "coordinates": [68.07563371583987, 37.75668471160139]}}, {"type": "Feature", "properties": {"norad_id": 66997, "name": "2025-292E", "group": "last-30-days", "lat": 43.00695071955275, "lon": 66.85387236177631, "alt_km": 558.5792944352979, "timestamp": "2025-12-27T15:27:09.832913+00:00", "meta": {"OBJECT_NAME": "2025-292E", "OBJECT_ID": "2025-292E", "EPOCH": "2025-12-27T05:41:03.045984", "MEAN_MOTION": 15.04790868, "ECCENTRICITY": 0.00143704, "INCLINATION": 97.6508, "RA_OF_ASC_NODE": 73.6536, "ARG_OF_PERICENTER": 224.7355, "MEAN_ANOMALY": 135.2713, "EPHEMERIS_TYPE": 0, "CLASSIFICATION_TYPE": "U", "NORAD_CAT_ID": 66997, "ELEMENT_SET_NO": 999, "REV_AT_EPOCH": 256, "BSTAR": 0.00037984132, "MEAN_MOTION_DOT": 5.31e-05, "MEAN_MOTION_DDOT": 0}, "tle": {"line1": "1 66997U 25292E   25361.23684081  .00005310  00000+0  37984-3 0  9998", "line2": "2 66997  97.6508  73.6536 0014370 224.7355 135.2713 15.04790868  2560"}}, "geometry": {"type": "Point", "coordinates": [66.85387236177631, 43.00695071955275]}}, {"type": "Feature", "properties": {"norad_id": 66998, "name": "2025-292F", "group": "last-30-days", "lat": 53.24570574542827, "lon": 63.69325631954947, "alt_km": 557.1756454270617, "timestamp": "2025-12-27T15:27:09.832923+00:00", "meta": {"OBJECT_NAME": "2025-292F", "OBJECT_ID": "2025-292F", "EPOCH": "2025-12-27T07:14:04.855776", "MEAN_MOTION": 15.04981137, "ECCENTRICITY": 0.00155147, "INCLINATION": 97.6528, "RA_OF_ASC_NODE": 73.7257, "ARG_OF_PERICENTER": 225.3405, "MEAN_ANOMALY": 134.6558, "EPHEMERIS_TYPE": 0, "CLASSIFICATION_TYPE": "U", "NORAD_CAT_ID": 66998, "ELEMENT_SET_NO": 999, "REV_AT_EPOCH": 258, "BSTAR": 0.00050362145, "MEAN_MOTION_DOT": 7.102e-05, "MEAN_MOTION_DDOT": 0}, "tle": {"line1": "1 66998U 25292F   25361.30144509  .00007102  00000+0  50362-3 0  9999", "line2": "2 66998  97.6528  73.7257 0015514 225.3405 134.6558 15.04981137  2581"}}, "geometry": {"type": "Point", "coordinates": [63.69325631954947, 53.24570574542827]}}, {"type": "Feature", "properties": {"norad_id": 66999, "name": "2025-292G", "group": "last-30-days", "lat": 57.133901665543945, "lon": 62.05536921682697, "alt_km": 556.0806424711363, "timestamp": "2025-12-27T15:27:09.832935+00:00", "meta": {"OBJECT_NAME": "2025-292G", "OBJECT_ID": "2025-292G", "EPOCH": "2025-12-27T07:13:02.331552", "MEAN_MOTION": 15.05045401, "ECCENTRICITY": 0.0015021, "INCLINATION": 97.6538, "RA_OF_ASC_NODE": 73.7286, "ARG_OF_PERICENTER": 227.3131, "MEAN_ANOMALY": 132.6831, "EPHEMERIS_TYPE": 0, "CLASSIFICATION_TYPE": "U", "NORAD_CAT_ID": 66999, "ELEMENT_SET_NO": 999, "REV_AT_EPOCH": 258, "BSTAR": 0.00050130827, "MEAN_MOTION_DOT": 7.08e-05, "MEAN_MOTION_DDOT": 0}, "tle": {"line1": "1 66999U 25292G   25361.30072143  .00007080  00000+0  50131-3 0  9993", "line2": "2 66999  97.6538  73.7286 0015021 227.3131 132.6831 15.05045401  2584"}}, "geometry": {"type": "Point", "coordinates": [62.05536921682697, 57.133901665543945]}}, {"type": "Feature", "properties": {"norad_id": 67000, "name": "2025-292H", "group": "last-30-days", "lat": 58.04136597557873, "lon": 61.6217435059617, "alt_km": 555.7790469696765, "timestamp": "2025-12-27T15:27:09.832945+00:00", "meta": {"OBJECT_NAME": "2025-292H", "OBJECT_ID": "2025-292H", "EPOCH": "2025-12-27T07:12:48.108384", "MEAN_MOTION": 15.05082529, "ECCENTRICITY": 0.001497, "INCLINATION": 97.6551, "RA_OF_ASC_NODE": 73.7316, "ARG_OF_PERICENTER": 227.1967, "MEAN_ANOMALY": 132.8002, "EPHEMERIS_TYPE": 0, "CLASSIFICATION_TYPE": "U", "NORAD_CAT_ID": 67000, "ELEMENT_SET_NO": 999, "REV_AT_EPOCH": 245, "BSTAR": 0.00059907653, "MEAN_MOTION_DOT": 8.483e-05, "MEAN_MOTION_DDOT": 0}, "tle": {"line1": "1 67000U 25292H   25361.30055681  .00008483  00000+0  59908-3 0  9994", "line2": "2 67000  97.6551  73.7316 0014970 227.1967 132.8002 15.05082529  2454"}}, "geometry": {"type": "Point", "coordinates": [61.6217435059617, 58.04136597557873]}}]}